STARLINK-6371
1 57381U 23099BF  26061.16668981  .00018188  00000+0  12708-2 0  9992
2 57381  42.9993 264.1457 0001377 249.1631   7.9602 15.05029926  5812
STARLINK-6173
1 56385U 23061M   26061.16668981  .00004682  00000+0  33863-3 0  9994
2 56385  43.0005 238.1466 0002023 280.0657 137.4955 15.05014745  5816
STARLINK-5400
1 54861U 22177AT  26061.16668981  .00070506  00000+0  48565-2 0  9990
2 54861  43.0007 161.2563 0002471 259.0234  77.6264 15.04970453  5761
STARLINK-30849
1 58245U 23171R   26061.16668981  .02032661  00000+0  12852+0 0  9994
2 58245  43.0019 326.5295 0001176 312.2100 199.3618 15.04947686  5663
STARLINK-30770
1 58132U 23162Q   26061.16668981  .02027182  00000+0  12835+0 0  9992
2 58132  42.9998 174.0744 0001626 270.4995 202.7116 15.04906846  5827
STARLINK-30128
1 56832U 23079K   26061.16668981  .00040895  00000+0  28444-2 0  9994
2 56832  43.0003 122.2310 0001048 326.1389 188.6993 15.04846262  5818
STARLINK-5808
1 56927U 23083BD  26061.16668981  .00036973  00000+0  25752-2 0  9995
2 56927  43.0003  20.0794 0000529 266.9182 327.1005 15.04834288  5818
STARLINK-5760
1 55591U 23020Y   26061.16668981  .00021219  00000+0  14875-2 0  9993
2 55591  43.0006  45.3521 0000617 255.3868 318.9853 15.04831202  5818
STARLINK-6324
1 57353U 23099AB  26061.16668981  .00057552  00000+0  39957-2 0  9994
2 57353  42.9994 289.3258 0000943 261.7650   3.6932 15.04769607  5768
STARLINK-30126
1 56694U 23067G   26061.16668981  .01843256  00000+0  11822+0 0  9999
2 56694  43.0010 315.5821 0001823 282.8031 146.7820 15.04746638  5774
STARLINK-31013
1 58526U 23191U   26060.27558885  .00033448  00000+0  23401-2 0  9997
2 58526  43.0012 151.0184 0001832 309.7065  50.3616 15.04707438124188
STARLINK-30440
1 57923U 23147L   26061.16668981  .01963203  00000+0  12561+0 0  9990
2 57923  43.0011   6.9808 0002041 293.8182 141.1542 15.04627239  5820
STARLINK-30452
1 57925U 23147N   26061.16668981  .01814020  00000+0  11540+0 0  9990
2 57925  43.0012   6.9358 0001666 293.8408 159.0298 15.04543619  5821
STARLINK-30904
1 58364U 23177P   26060.89873381  .00036273  00000+0  25673-2 0  9992
2 58364  43.0017  32.2253 0001359 172.5846 187.5017 15.04241336127065
STARLINK-5416
1 54855U 22177AM  26061.16668981  .00067205  00000+0  47496-2 0  9997
2 54855  43.0001 161.3329 0000850 237.7469  64.1785 15.04033717  5819
STARLINK-6330
1 57239U 23094X   26061.16771723  .00158033  00000+0  11014-1 0  9990
2 57239  43.0024  70.7513 0001148 242.5525 117.5201 15.04005583145999
STARLINK-5695
1 55485U 23015AN  26061.18286734  .00208293  00000+0  14449-1 0  9998
2 55485  43.0024  19.8616 0001471 279.1730  80.8946 15.03898801169470
STARLINK-5870
1 57222U 23094E   26061.15276487  .00153920  00000+0  10781-1 0  9998
2 57222  43.0004  71.5017 0002582 146.0595 214.0413 15.03841203146619
STARLINK-30941
1 58475U 23186C   26061.14176667  .00138653  00000+0  97657-2 0  9993
2 58475  43.0016 108.6754 0001646 314.1254  45.9454 15.03719541124715
STARLINK-30223
1 57603U 23119B   26061.16966332  .00130641  00000+0  92322-2 0  9992
2 57603  43.0010 122.5506 0001444 241.7217 118.3480 15.03640635141946
STARLINK-6360
1 57235U 23094T   26061.04871348  .00109056  00000+0  77453-2 0  9998
2 57235  43.0017  71.5838 0001372 344.3611  15.7190 15.03581243145977
STARLINK-5403
1 54862U 22177AU  26061.12789769  .00112713  00000+0  80072-2 0  9991
2 54862  42.9957 161.7815 0000421  28.4187 331.6678 15.03548686175967
STARLINK-5762
1 55590U 23020X   26061.05051661  .00110820  00000+0  78807-2 0  9993
2 55590  43.0021  45.8480 0001439 232.6554 127.4158 15.03522536167777
STARLINK-30131
1 56833U 23079L   26061.12660109  .00121555  00000+0  86324-2 0  9999
2 56833  43.0011 122.4699 0001586 229.2745 130.7960 15.03509334152041
STARLINK-5752
1 55577U 23020J   26061.01958350  .00100193  00000+0  71504-2 0  9994
2 55577  43.0038  46.4115 0001691 309.1514  50.9179 15.03453076167762
